#dP2019  4 26  0  0  0.00000000      96 __u+U ITR00 FIT  IAC
## 2050 432000.00000000   900.00000000 58599 0.0000000000000
+   97   C02C03C04C05C06C07C08C09C10C11C12C13C14C16E01E02E03
+        E04E05E07E08E09E11E12E13E14E15E18E19E21E24E25E26E27
+        E30E31E33E36G01G02G03G04G05G06G07G08G09G10G11G12G13
+        G14G15G16G17G18G19G20G21G22G23G24G25G26G27G28G29G30
+        G31G32J01J02J03J07R01R02R03R04R05R07R08R09R10R11R13
+        R14R15R16R17R18R19R20R21R22R23R24R26  0  0  0  0  0
++        12 12 12 12  9  8  9  9  8  8  8  8  8  9  5  5  5
++         5  5  5  5  6  5  5  5  5  5  5  5  5  5  5  4  5
++         5  5  5  5  3  3  3  4  3  3  3  3  3  3  3  3  3
++         3  3  3  3  3  3  3  3  3  3  3  3  3  3  3  3  3
++         3  3  9  9  9 15  5  5  5  5  5  5  5  5  5  5  5
++         5  5  5  5  5  5  5  5  5  5  6  8  0  0  0  0  0
%c M  cc GPS ccc cccc cccc cccc cccc ccccc ccccc ccccc ccccc
%c cc cc ccc ccc cccc cccc cccc cccc ccccc ccccc ccccc ccccc
%f  0.0000000  0.000000000  0.00000000000  0.000000000000000
%f  0.0000000  0.000000000  0.00000000000  0.000000000000000
%i    0    0    0    0      0      0      0      0         0
%i    0    0    0    0      0      0      0      0         0
/* INFORMATION & ANALYSIS CENTER (IAC) OF MCC   (RAPID DATA)
/* S/V CLOCKS ARE ALIGNED TO GPS & GLONASS TIME RESPECTIVELY
/* USING THE BROADCAST EPHEMERIS                            
/* PCV:IGS14_2045 OL/AL:FES2004  NONE     YN ORB:CoN CLK:CoN
*  2019 04 26 19 15  0.00000000
PC02   4434.533068  41923.705864    758.146751    196.279036
PC03 -14777.484370  39525.420233   -382.051674    205.553757
PC04 -39623.901864  14403.968050   -531.723326   -130.857102
PC05  21825.666210  36083.806995   1085.456934   -285.943719
PC06  -8841.125335  24828.634093  33305.078831    742.186363
PC07 -24536.074420  26786.787728 -21643.106488   -322.630248
PC08 -15085.840076  37740.220437 -10594.615732    150.731153
PC09   6616.569796  33227.766280  25530.971040    716.882729
PC10  -9418.940842  28215.619424 -29886.407207   -698.640288
PC11  12689.809850  -9291.940385  23109.529152   -121.468745
PC12  16328.060041  19295.281038  11803.863379    613.097922
PC13  -5688.279019  41428.190284   4375.305480   -676.662986
PC14  27500.621135     76.069186  -4810.395001    653.568668
PC16  -3603.127797  27235.000090  32055.908628   -629.958522
PE01  19843.576699 -19307.977261  10463.358182   -592.097741
PE02 -19794.021354  19326.016943 -10523.353097     57.649231
PE03 -10759.470231  13508.156931  24047.521983   -159.574465
PE04  -9781.324380 -20930.309178 -18493.647750   -269.560530
PE05 -25128.977013  -1885.459704  15537.013995     67.338237
PE07  24735.863349  16122.726074   2041.843493   -176.259105
PE08  10079.624331  20764.687191  18533.464990   6365.879653
PE09 -24905.015660 -15885.080337  -1997.037779   6457.582166
PE11 -13528.146531 -16923.591329 -20157.858136   5702.706280
PE12  -2708.923682 -29218.389421  -3778.482442   6425.333288
PE13  13485.108937  17051.236000  20102.604810    386.186216
PE14 -20428.240995   5974.435526 -24392.943281   -544.219745
PE15   3073.002746  29155.828430   4133.271720    912.485964
PE18  16844.950693     58.020732  16715.379211   -642.714882
PE19  12541.328190 -12126.120949 -23904.333467     -6.818164
PE21  26873.967327  -8871.857779  -8679.703474   -531.027704
PE24 -18264.870482  -6624.876618  22309.666037   6112.154208
PE25 -26871.322411   8840.318408   8719.584971   1822.592175
PE26  16249.329570  -4942.495139  24248.093159   4637.392049
PE27  17986.533470   6781.043771 -22512.677744    481.972855
PE30  -1160.079677  18348.706408 -23209.433804   4919.627234
PE31   1432.355062 -18428.857564  23118.994730   -464.244025
PE33   9186.482614 -24214.516881  14329.168682   -470.463046
PE36 -16031.360825   5104.376130 -24347.252636    719.442541
PG01  13830.109189 -20821.116162   8305.104172     -2.817871
PG02 -15575.381917    426.413371 -20886.867900   -198.723350
PG03  19546.193804 -12466.438358 -12924.078761    188.330958
PG04  -8633.820657 -22871.508096 -10371.965313    153.950206
PG05 -26173.514106   1521.522835  -5012.086037      1.061036
PG06  -9943.656823 -13438.014905 -20583.830012    220.878685
PG07   5955.939806 -25183.601658   4974.819622    -12.553110
PG08  15591.975424  -4077.693059  21184.974072   -141.373530
PG09  -3702.330650 -21278.712384 -15492.023186    422.016094
PG10  11988.766421  12311.636921  20366.027041     62.601224
PG11  10436.166353 -18565.117112  15485.446327   -618.792702
PG12 -20739.530934  10675.126653 -12747.443909    247.781886
PG13 -18427.543944  -5499.746311  18226.771015    -66.180197
PG14  18275.601647  18241.141439  -6305.409042    -82.924670
PG15 -14916.702398   6946.507212  20644.015991   -316.279390
PG16  26548.054968    330.690059  -3824.529622    -35.581371
PG17 -14493.219134 -22218.954431   2469.177674     45.246903
PG18  15931.553956 -13814.873355  15579.699979     47.825219
PG19 -17850.146381 -18561.499094  -6612.359680   -326.062684
PG20   1813.570218  15876.064598  21101.804261    524.280216
PG21   -169.826844  25016.441624   9931.925077   -204.532633
PG22  23898.578078 -10036.646732  -5387.567270   -690.702032
PG23   7662.316166 -14137.426210 -20746.749861   -188.644713
PG24 -14674.379334  18564.434510  11570.617544    -65.279945
PG25  -8924.236300  15321.297450 -19904.360723   -750.000119
PG26  22338.755252   5394.545029 -13487.527766    186.181696
PG27  20076.388080   7465.354392  15796.410124   -117.593962
PG28  -9832.966820 -13455.931501  21266.688778    767.660712
PG29  -1588.376098  18849.858987 -18675.979471    216.029505
PG30  -2403.597645 -21922.357956  14683.931291    -93.678495
PG31  10982.745861  11947.226662 -20941.085809     42.320956
PG32  17280.473962  20251.971752   -210.388212   -114.472014
PJ01 -28772.363633  24318.019170  24009.698790   -316.867901
PJ02 -33891.137657  25009.925171   4591.236129      2.058836
PJ03 -21347.449283  20648.971342 -25341.817949     -0.204127
PJ07 -25400.529166  33663.741294     35.558753     -0.012155
PR01   1159.106551  11797.258338  22591.340538     42.921313
PR02  20000.828616  11880.534825  10566.784394    365.646261
PR03  24164.927154   4444.121453  -6891.562718     -5.717065
PR04  13797.477046  -5843.824559 -20626.341499    303.996985
PR05  -3648.525063 -12125.847075 -22124.377435     26.944217
PR07 -24018.238561  -4102.442949   7525.126603    -18.954144
PR08 -14423.428649   5487.823896  20364.843203     18.046064
PR09  -9971.731768  -5928.610334  22732.562396     66.533975
PR10 -18930.712595   6901.484133  15667.564391     48.516749
PR11 -18503.132970  17521.540315  -1578.893475    -64.204524
PR13   8420.996006   7039.455732 -23047.832584    -22.922733
PR14  18970.226533  -6957.186899 -15554.945869     38.335800
PR15  18816.448030 -17210.208251    738.656546    101.591362
PR16   7495.583713 -17841.313080  16657.506475      9.958780
PR17  11399.919614   4529.654209  22369.419822    223.381365
PR18   6783.423348 -13433.103227  20590.541447     -8.936423
PR19   -937.422440 -24311.693097   7656.111024    -27.543257
PR20  -9007.786673 -20878.370380 -11497.037741   -376.196750
PR21 -11260.903105  -3919.094852 -22550.972713    -44.650490
PR22  -5608.627514  15950.441339 -19147.972322    -16.316313
PR23   3898.430313  25091.739232  -2486.167269    224.245367
PR24   9876.321678  19641.615373  12932.148550   -179.773188
PR26  -8675.243967 -22193.675212  -9116.852854    -10.091878
EOF
